KUIPER-00095            
1 65134U 25171C   25299.57484402  .00046362  00000+0  12384-2 0  9996
2 65134  51.8740  37.6623 0005048  51.2705 308.8733 15.37626300 12941
KUIPER-00096            
1 65135U 25171D   25299.83334491 -.00316040  00000+0 -11102-1 0  9999
2 65135  51.8788  36.6109 0007154  59.0040 196.1159 15.30172598  5827
KUIPER-00097            
1 65136U 25171E   25299.83334491 -.00072970  00000+0 -34606-2 0  9996
2 65136  51.8871  37.6250 0005653  40.1941  35.9381 15.18987631  5906
KUIPER-00098            
1 65137U 25171F   25299.83334491 -.00721455  00000+0 -41543-1 0  9993
2 65137  51.8818  38.1569 0006986  35.8977 185.3280 15.14464784  5797
KUIPER-00099            
1 65138U 25171G   25299.83334491 -.00588528  00000+0 -17510-1 0  9993
2 65138  51.8775  36.1200 0007373  39.2572 105.8259 15.36536650  5519
KUIPER-00100            
1 65139U 25171H   25299.68672044  .00051226  00000+0  13448-2 0  9991
2 65139  51.8767  36.9176 0005673  38.6307 321.5085 15.38112356 12956
KUIPER-00102            
1 65140U 25171J   25299.70442470  .00027902  00000+0  74763-3 0  9996
2 65140  51.8748  37.0289 0005593  44.6270 315.5166 15.37774002 12955
KUIPER-00103            
1 65141U 25171K   25299.83334491 -.00829194  00000+0 -89571-1 0  9990
2 65141  51.8969  42.7404 0006911  52.9071  69.7437 14.90845600  2879
